[{"OBJECT_NAME":"STARLINK-3711","OBJECT_ID":"2022-029AV","EPOCH":"2026-03-09T23:28:15.759552","MEAN_MOTION":15.14150134,"ECCENTRICITY":6.042e-5,"INCLINATION":53.2142,"RA_OF_ASC_NODE":66.1332,"ARG_OF_PERICENTER":49.6209,"MEAN_ANOMALY":310.4839,"EPHEMERIS_TYPE":0,"CLASSIFICATION_TYPE":"U","NORAD_CAT_ID":52131,"ELEMENT_SET_NO":999,"REV_AT_EPOCH":22100,"BSTAR":0.0018381126,"MEAN_MOTION_DOT":0.00033758,"MEAN_MOTION_DDOT":0},{"OBJECT_NAME":"OBJECT B","OBJECT_ID":"2025-180B","EPOCH":"2026-03-02T07:51:01.178208","MEAN_MOTION":15.14359033,"ECCENTRICITY":0.0014719,"INCLINATION":97.5099,"RA_OF_ASC_NODE":189.7404,"ARG_OF_PERICENTER":334.9723,"MEAN_ANOMALY":25.0794,"EPHEMERIS_TYPE":0,"CLASSIFICATION_TYPE":"U","NORAD_CAT_ID":65260,"ELEMENT_SET_NO":999,"REV_AT_EPOCH":2948,"BSTAR":0.00032386063,"MEAN_MOTION_DOT":5.888e-5,"MEAN_MOTION_DDOT":0}]
